{
  "links" : {
    "next" : "https://api.nasa.gov/neo/rest/v1/feed?start_date=2006-11-23&end_date=2006-11-23&detailed=true&api_key=t0TVs3DtDT2H8Oy2Zy8m2eVrNsAVKAexjcZXUckd",
    "prev" : "https://api.nasa.gov/neo/rest/v1/feed?start_date=2006-11-21&end_date=2006-11-21&detailed=true&api_key=t0TVs3DtDT2H8Oy2Zy8m2eVrNsAVKAexjcZXUckd",
    "self" : "https://api.nasa.gov/neo/rest/v1/feed?start_date=2006-11-22&end_date=2006-11-22&detailed=true&api_key=t0TVs3DtDT2H8Oy2Zy8m2eVrNsAVKAexjcZXUckd"
  },
  "element_count" : 10,
  "near_earth_objects" : {
    "2006-11-22" : [ {
      "links" : {
        "self" : "https://api.nasa.gov/neo/rest/v1/neo/2333578?api_key=t0TVs3DtDT2H8Oy2Zy8m2eVrNsAVKAexjcZXUckd"
      },
      "neo_reference_id" : "2333578",
      "name" : "333578 (2006 KM103)",
      "nasa_jpl_url" : "http://ssd.jpl.nasa.gov/sbdb.cgi?sstr=2333578",
      "absolute_magnitude_h" : 20.2,
      "estimated_diameter" : {
        "kilometers" : {
          "estimated_diameter_min" : 0.2424124811,
          "estimated_diameter_max" : 0.5420507863
        },
        "meters" : {
          "estimated_diameter_min" : 242.4124811008,
          "estimated_diameter_max" : 542.0507863358
        },
        "miles" : {
          "estimated_diameter_min" : 0.1506280858,
          "estimated_diameter_max" : 0.3368146392
        },
        "feet" : {
          "estimated_diameter_min" : 795.3165644948,
          "estimated_diameter_max" : 1778.3819018419
        }
      },
      "is_potentially_hazardous_asteroid" : true,
      "close_approach_data" : [ {
        "close_approach_date" : "2006-11-22",
        "epoch_date_close_approach" : 1164182400000,
        "relative_velocity" : {
          "kilometers_per_second" : "18.9276295793",
          "kilometers_per_hour" : "68139.4664854346",
          "miles_per_hour" : "42339.214605908"
        },
        "miss_distance" : {
          "astronomical" : "0.4528051379",
          "lunar" : "176.1411895752",
          "kilometers" : "67738688",
          "miles" : "42090868"
        },
        "orbiting_body" : "Earth"
      } ],
      "orbital_data" : {
        "orbit_id" : "83",
        "orbit_determination_date" : "2017-04-06 09:23:27",
        "orbit_uncertainty" : "0",
        "minimum_orbit_intersection" : ".0130652",
        "jupiter_tisserand_invariant" : "4.304",
        "epoch_osculation" : "2458000.5",
        "eccentricity" : ".3768073209959183",
        "semi_major_axis" : "1.573763858961513",
        "inclination" : "11.68216017014653",
        "ascending_node_longitude" : "169.5007233624131",
        "orbital_period" : "721.1203945244606",
        "perihelion_distance" : ".9807581153860272",
        "perihelion_argument" : "196.94841610692",
        "aphelion_distance" : "2.166769602536999",
        "perihelion_time" : "2457645.294567264879",
        "mean_anomaly" : "177.3267775472767",
        "mean_motion" : ".4992231570948708",
        "equinox" : "J2000"
      }
    }, {
      "links" : {
        "self" : "https://api.nasa.gov/neo/rest/v1/neo/3092144?api_key=t0TVs3DtDT2H8Oy2Zy8m2eVrNsAVKAexjcZXUckd"
      },
      "neo_reference_id" : "3092144",
      "name" : "(1996 BG1)",
      "nasa_jpl_url" : "http://ssd.jpl.nasa.gov/sbdb.cgi?sstr=3092144",
      "absolute_magnitude_h" : 23.8,
      "estimated_diameter" : {
        "kilometers" : {
          "estimated_diameter_min" : 0.046190746,
          "estimated_diameter_max" : 0.1032856481
        },
        "meters" : {
          "estimated_diameter_min" : 46.1907460282,
          "estimated_diameter_max" : 103.2856480504
        },
        "miles" : {
          "estimated_diameter_min" : 0.0287015901,
          "estimated_diameter_max" : 0.0641787064
        },
        "feet" : {
          "estimated_diameter_min" : 151.544447199,
          "estimated_diameter_max" : 338.8636855496
        }
      },
      "is_potentially_hazardous_asteroid" : false,
      "close_approach_data" : [ {
        "close_approach_date" : "2006-11-22",
        "epoch_date_close_approach" : 1164182400000,
        "relative_velocity" : {
          "kilometers_per_second" : "6.6574433449",
          "kilometers_per_hour" : "23966.7960416189",
          "miles_per_hour" : "14892.0350181937"
        },
        "miss_distance" : {
          "astronomical" : "0.0885766493",
          "lunar" : "34.4563179016",
          "kilometers" : "13250879",
          "miles" : "8233714.5"
        },
        "orbiting_body" : "Earth"
      } ],
      "orbital_data" : {
        "orbit_id" : "13",
        "orbit_determination_date" : "2017-04-06 09:18:06",
        "orbit_uncertainty" : "3",
        "minimum_orbit_intersection" : ".0269997",
        "jupiter_tisserand_invariant" : "6.595",
        "epoch_osculation" : "2458000.5",
        "eccentricity" : ".2798040398881472",
        "semi_major_axis" : ".8971796540339466",
        "inclination" : "3.830794406071819",
        "ascending_node_longitude" : "139.4945444119541",
        "orbital_period" : "310.397025783636",
        "perihelion_distance" : ".6461451623297981",
        "perihelion_argument" : "150.7001025224535",
        "aphelion_distance" : "1.148214145738095",
        "perihelion_time" : "2458007.763736847393",
        "mean_anomaly" : "351.5754822119841",
        "mean_motion" : "1.159804927547663",
        "equinox" : "J2000"
      }
    }, {
      "links" : {
        "self" : "https://api.nasa.gov/neo/rest/v1/neo/3370021?api_key=t0TVs3DtDT2H8Oy2Zy8m2eVrNsAVKAexjcZXUckd"
      },
      "neo_reference_id" : "3370021",
      "name" : "(2007 EC)",
      "nasa_jpl_url" : "http://ssd.jpl.nasa.gov/sbdb.cgi?sstr=3370021",
      "absolute_magnitude_h" : 22.2,
      "estimated_diameter" : {
        "kilometers" : {
          "estimated_diameter_min" : 0.096506147,
          "estimated_diameter_max" : 0.2157943048
        },
        "meters" : {
          "estimated_diameter_min" : 96.5061469579,
          "estimated_diameter_max" : 215.7943048444
        },
        "miles" : {
          "estimated_diameter_min" : 0.059966121,
          "estimated_diameter_max" : 0.134088323
        },
        "feet" : {
          "estimated_diameter_min" : 316.6212271853,
          "estimated_diameter_max" : 707.9865871058
        }
      },
      "is_potentially_hazardous_asteroid" : true,
      "close_approach_data" : [ {
        "close_approach_date" : "2006-11-22",
        "epoch_date_close_approach" : 1164182400000,
        "relative_velocity" : {
          "kilometers_per_second" : "4.2740811798",
          "kilometers_per_hour" : "15386.692247346",
          "miles_per_hour" : "9560.6921911356"
        },
        "miss_distance" : {
          "astronomical" : "0.2028229738",
          "lunar" : "78.8981323242",
          "kilometers" : "30341884",
          "miles" : "18853572"
        },
        "orbiting_body" : "Earth"
      } ],
      "orbital_data" : {
        "orbit_id" : "44",
        "orbit_determination_date" : "2017-04-06 09:06:52",
        "orbit_uncertainty" : "0",
        "minimum_orbit_intersection" : ".0245325",
        "jupiter_tisserand_invariant" : "6.430",
        "epoch_osculation" : "2458000.5",
        "eccentricity" : ".1958245756801665",
        "semi_major_axis" : ".9282530691577595",
        "inclination" : "5.851242109102129",
        "ascending_node_longitude" : "307.6796838709373",
        "orbital_period" : "326.6615493870136",
        "perihelion_distance" : ".7464783057661291",
        "perihelion_argument" : "46.27532227227935",
        "aphelion_distance" : "1.11002783254939",
        "perihelion_time" : "2457927.999112423733",
        "mean_anomaly" : "79.90018897673681",
        "mean_motion" : "1.102058080222624",
        "equinox" : "J2000"
      }
    } ]
  }
}